[{"OBJECT_NAME":"STARLINK-6279","OBJECT_ID":"2023-061AP","EPOCH":"2026-03-11T12:00:02.998944","MEAN_MOTION":15.04635035,"ECCENTRICITY":0.0002012,"INCLINATION":43,"RA_OF_ASC_NODE":174.6412,"ARG_OF_PERICENTER":266.8322,"MEAN_ANOMALY":207.015,"EPHEMERIS_TYPE":0,"CLASSIFICATION_TYPE":"U","NORAD_CAT_ID":56411,"ELEMENT_SET_NO":999,"REV_AT_EPOCH":576,"BSTAR":0.0012226,"MEAN_MOTION_DOT":0.00017302,"MEAN_MOTION_DDOT":0},{"OBJECT_NAME":"STARLINK-6278","OBJECT_ID":"2023-061AQ","EPOCH":"2026-03-11T12:00:02.998944","MEAN_MOTION":15.0586268,"ECCENTRICITY":6.11e-5,"INCLINATION":43.0005,"RA_OF_ASC_NODE":174.3933,"ARG_OF_PERICENTER":267.4233,"MEAN_ANOMALY":311.5105,"EPHEMERIS_TYPE":0,"CLASSIFICATION_TYPE":"U","NORAD_CAT_ID":56412,"ELEMENT_SET_NO":999,"REV_AT_EPOCH":581,"BSTAR":0.0013964,"MEAN_MOTION_DOT":0.00020469,"MEAN_MOTION_DDOT":0},{"OBJECT_NAME":"STARLINK-6258","OBJECT_ID":"2023-061AR","EPOCH":"2026-03-11T08:07:01.490880","MEAN_MOTION":15.02538009,"ECCENTRICITY":0.0001316,"INCLINATION":43.0039,"RA_OF_ASC_NODE":175.4215,"ARG_OF_PERICENTER":263.7977,"MEAN_ANOMALY":96.2715,"EPHEMERIS_TYPE":0,"CLASSIFICATION_TYPE":"U","NORAD_CAT_ID":56413,"ELEMENT_SET_NO":999,"REV_AT_EPOCH":15715,"BSTAR":4.0461e-5,"MEAN_MOTION_DOT":3.43e-6,"MEAN_MOTION_DDOT":0},{"OBJECT_NAME":"STARLINK-5136","OBJECT_ID":"2023-061AS","EPOCH":"2026-03-11T07:47:51.588096","MEAN_MOTION":15.025439,"ECCENTRICITY":6.46e-5,"INCLINATION":43.0042,"RA_OF_ASC_NODE":175.319,"ARG_OF_PERICENTER":226.0552,"MEAN_ANOMALY":134.0237,"EPHEMERIS_TYPE":0,"CLASSIFICATION_TYPE":"U","NORAD_CAT_ID":56414,"ELEMENT_SET_NO":999,"REV_AT_EPOCH":15715,"BSTAR":0.00017355,"MEAN_MOTION_DOT":2.142e-5,"MEAN_MOTION_DDOT":0},{"OBJECT_NAME":"STARLINK-6260","OBJECT_ID":"2023-061AU","EPOCH":"2026-03-11T05:48:41.291712","MEAN_MOTION":15.02535501,"ECCENTRICITY":0.0001388,"INCLINATION":43.0035,"RA_OF_ASC_NODE":163.4169,"ARG_OF_PERICENTER":275.3724,"MEAN_ANOMALY":84.696,"EPHEMERIS_TYPE":0,"CLASSIFICATION_TYPE":"U","NORAD_CAT_ID":56416,"ELEMENT_SET_NO":999,"REV_AT_EPOCH":15728,"BSTAR":0.00010232,"MEAN_MOTION_DOT":1.179e-5,"MEAN_MOTION_DDOT":0},{"OBJECT_NAME":"STARLINK-6261","OBJECT_ID":"2023-061AV","EPOCH":"2026-03-11T09:24:18.006912","MEAN_MOTION":15.03094983,"ECCENTRICITY":0.0004632,"INCLINATION":42.9965,"RA_OF_ASC_NODE":174.9547,"ARG_OF_PERICENTER":148.5656,"MEAN_ANOMALY":211.5464,"EPHEMERIS_TYPE":0,"CLASSIFICATION_TYPE":"U","NORAD_CAT_ID":56417,"ELEMENT_SET_NO":999,"REV_AT_EPOCH":15716,"BSTAR":0.0050912,"MEAN_MOTION_DOT":0.00070312,"MEAN_MOTION_DDOT":0},{"OBJECT_NAME":"STARLINK-5356","OBJECT_ID":"2023-061AW","EPOCH":"2026-03-11T07:05:13.964064","MEAN_MOTION":15.02533614,"ECCENTRICITY":0.000165,"INCLINATION":43.0029,"RA_OF_ASC_NODE":162.9526,"ARG_OF_PERICENTER":283.1518,"MEAN_ANOMALY":76.914,"EPHEMERIS_TYPE":0,"CLASSIFICATION_TYPE":"U","NORAD_CAT_ID":56418,"ELEMENT_SET_NO":999,"REV_AT_EPOCH":15729,"BSTAR":6.0135e-5,"MEAN_MOTION_DOT":6.09e-6,"MEAN_MOTION_DDOT":0},{"OBJECT_NAME":"STARLINK-5350","OBJECT_ID":"2023-061AX","EPOCH":"2026-03-11T06:08:26.386080","MEAN_MOTION":15.02851251,"ECCENTRICITY":0.0001369,"INCLINATION":43.0035,"RA_OF_ASC_NODE":175.6626,"ARG_OF_PERICENTER":257.0799,"MEAN_ANOMALY":102.9891,"EPHEMERIS_TYPE":0,"CLASSIFICATION_TYPE":"U","NORAD_CAT_ID":56419,"ELEMENT_SET_NO":999,"REV_AT_EPOCH":15714,"BSTAR":0.0029426,"MEAN_MOTION_DOT":0.00040109,"MEAN_MOTION_DDOT":0},{"OBJECT_NAME":"STARLINK-6272","OBJECT_ID":"2023-061AY","EPOCH":"2026-03-11T05:24:42.354144","MEAN_MOTION":15.02539454,"ECCENTRICITY":0.00015116,"INCLINATION":43.0056,"RA_OF_ASC_NODE":163.2897,"ARG_OF_PERICENTER":264.9653,"MEAN_ANOMALY":95.1017,"EPHEMERIS_TYPE":0,"CLASSIFICATION_TYPE":"U","NORAD_CAT_ID":56420,"ELEMENT_SET_NO":999,"REV_AT_EPOCH":15728,"BSTAR":0.00011481973,"MEAN_MOTION_DOT":1.348e-5,"MEAN_MOTION_DDOT":0},{"OBJECT_NAME":"STARLINK-6270","OBJECT_ID":"2023-061AZ","EPOCH":"2026-03-11T05:53:28.652064","MEAN_MOTION":15.02536248,"ECCENTRICITY":0.0001264,"INCLINATION":43.0027,"RA_OF_ASC_NODE":163.4363,"ARG_OF_PERICENTER":266.2925,"MEAN_ANOMALY":93.7772,"EPHEMERIS_TYPE":0,"CLASSIFICATION_TYPE":"U","NORAD_CAT_ID":56421,"ELEMENT_SET_NO":999,"REV_AT_EPOCH":15728,"BSTAR":3.3388e-5,"MEAN_MOTION_DOT":2.47e-6,"MEAN_MOTION_DDOT":0},{"OBJECT_NAME":"STARLINK-6236","OBJECT_ID":"2023-061BA","EPOCH":"2026-03-11T13:13:46.093152","MEAN_MOTION":15.02531905,"ECCENTRICITY":0.0001524,"INCLINATION":43.0059,"RA_OF_ASC_NODE":161.4353,"ARG_OF_PERICENTER":260.6167,"MEAN_ANOMALY":99.4504,"EPHEMERIS_TYPE":0,"CLASSIFICATION_TYPE":"U","NORAD_CAT_ID":56422,"ELEMENT_SET_NO":999,"REV_AT_EPOCH":15733,"BSTAR":4.6345e-5,"MEAN_MOTION_DOT":4.22e-6,"MEAN_MOTION_DDOT":0},{"OBJECT_NAME":"STARLINK-6239","OBJECT_ID":"2023-061BB","EPOCH":"2026-03-11T13:18:33.460416","MEAN_MOTION":15.02534129,"ECCENTRICITY":0.0001122,"INCLINATION":43.0026,"RA_OF_ASC_NODE":161.4565,"ARG_OF_PERICENTER":274.2499,"MEAN_ANOMALY":85.8215,"EPHEMERIS_TYPE":0,"CLASSIFICATION_TYPE":"U","NORAD_CAT_ID":56423,"ELEMENT_SET_NO":999,"REV_AT_EPOCH":15733,"BSTAR":9.5226e-6,"MEAN_MOTION_DOT":-7.5e-7,"MEAN_MOTION_DDOT":0},{"OBJECT_NAME":"STARLINK-6242","OBJECT_ID":"2023-061BC","EPOCH":"2026-03-10T22:42:36.922752","MEAN_MOTION":15.02537267,"ECCENTRICITY":0.0001191,"INCLINATION":43.0043,"RA_OF_ASC_NODE":164.6326,"ARG_OF_PERICENTER":266.7874,"MEAN_ANOMALY":93.2832,"EPHEMERIS_TYPE":0,"CLASSIFICATION_TYPE":"U","NORAD_CAT_ID":56424,"ELEMENT_SET_NO":999,"REV_AT_EPOCH":15724,"BSTAR":3.3204e-5,"MEAN_MOTION_DOT":2.45e-6,"MEAN_MOTION_DDOT":0},{"OBJECT_NAME":"STARLINK-6224","OBJECT_ID":"2023-061BD","EPOCH":"2026-03-11T06:46:03.361440","MEAN_MOTION":15.02533888,"ECCENTRICITY":0.0001389,"INCLINATION":43.0033,"RA_OF_ASC_NODE":162.8515,"ARG_OF_PERICENTER":272.6833,"MEAN_ANOMALY":87.385,"EPHEMERIS_TYPE":0,"CLASSIFICATION_TYPE":"U","NORAD_CAT_ID":56425,"ELEMENT_SET_NO":999,"REV_AT_EPOCH":15729,"BSTAR":2.8607e-6,"MEAN_MOTION_DOT":-1.65e-6,"MEAN_MOTION_DDOT":0},{"OBJECT_NAME":"STARLINK-5352","OBJECT_ID":"2023-061BE","EPOCH":"2026-03-11T07:48:22.992768","MEAN_MOTION":15.02535901,"ECCENTRICITY":0.000183,"INCLINATION":43.0037,"RA_OF_ASC_NODE":163.1633,"ARG_OF_PERICENTER":273.9984,"MEAN_ANOMALY":86.065,"EPHEMERIS_TYPE":0,"CLASSIFICATION_TYPE":"U","NORAD_CAT_ID":56426,"ELEMENT_SET_NO":999,"REV_AT_EPOCH":15729,"BSTAR":9.7029e-5,"MEAN_MOTION_DOT":1.107e-5,"MEAN_MOTION_DDOT":0},{"OBJECT_NAME":"STARLINK-5724","OBJECT_ID":"2023-061BF","EPOCH":"2026-03-11T07:34:00.450336","MEAN_MOTION":15.02532931,"ECCENTRICITY":0.0001005,"INCLINATION":43.0023,"RA_OF_ASC_NODE":163.0898,"ARG_OF_PERICENTER":247.6189,"MEAN_ANOMALY":112.4547,"EPHEMERIS_TYPE":0,"CLASSIFICATION_TYPE":"U","NORAD_CAT_ID":56427,"ELEMENT_SET_NO":999,"REV_AT_EPOCH":15729,"BSTAR":0.00020018,"MEAN_MOTION_DOT":2.501e-5,"MEAN_MOTION_DDOT":0},{"OBJECT_NAME":"STARLINK-6238","OBJECT_ID":"2023-061BG","EPOCH":"2026-03-11T06:31:40.226304","MEAN_MOTION":15.02535106,"ECCENTRICITY":8.49e-5,"INCLINATION":43.003,"RA_OF_ASC_NODE":162.7784,"ARG_OF_PERICENTER":279.0024,"MEAN_ANOMALY":81.0722,"EPHEMERIS_TYPE":0,"CLASSIFICATION_TYPE":"U","NORAD_CAT_ID":56428,"ELEMENT_SET_NO":999,"REV_AT_EPOCH":15729,"BSTAR":2.2114e-5,"MEAN_MOTION_DOT":9.5e-7,"MEAN_MOTION_DDOT":0},{"OBJECT_NAME":"STARLINK-6264","OBJECT_ID":"2023-061BH","EPOCH":"2026-03-11T08:02:36.050208","MEAN_MOTION":15.02536624,"ECCENTRICITY":0.0001321,"INCLINATION":43.0017,"RA_OF_ASC_NODE":162.3871,"ARG_OF_PERICENTER":256.1184,"MEAN_ANOMALY":103.9511,"EPHEMERIS_TYPE":0,"CLASSIFICATION_TYPE":"U","NORAD_CAT_ID":56429,"ELEMENT_SET_NO":999,"REV_AT_EPOCH":15730,"BSTAR":0.00013766,"MEAN_MOTION_DOT":1.656e-5,"MEAN_MOTION_DDOT":0},{"OBJECT_NAME":"STARLINK-5990","OBJECT_ID":"2023-064A","EPOCH":"2026-03-11T13:18:33.029280","MEAN_MOTION":14.98329743,"ECCENTRICITY":0.0003286,"INCLINATION":69.9994,"RA_OF_ASC_NODE":139.8293,"ARG_OF_PERICENTER":271.0312,"MEAN_ANOMALY":89.0471,"EPHEMERIS_TYPE":0,"CLASSIFICATION_TYPE":"U","NORAD_CAT_ID":56448,"ELEMENT_SET_NO":999,"REV_AT_EPOCH":15552,"BSTAR":4.3054e-5,"MEAN_MOTION_DOT":4.21e-6,"MEAN_MOTION_DDOT":0},{"OBJECT_NAME":"STARLINK-5993","OBJECT_ID":"2023-064B","EPOCH":"2026-03-11T12:12:13.491072","MEAN_MOTION":14.98333696,"ECCENTRICITY":0.0003056,"INCLINATION":70.0003,"RA_OF_ASC_NODE":140.0689,"ARG_OF_PERICENTER":272.8102,"MEAN_ANOMALY":87.2708,"EPHEMERIS_TYPE":0,"CLASSIFICATION_TYPE":"U","NORAD_CAT_ID":56449,"ELEMENT_SET_NO":999,"REV_AT_EPOCH":15551,"BSTAR":8.0361e-5,"MEAN_MOTION_DOT":8.66e-6,"MEAN_MOTION_DDOT":0},{"OBJECT_NAME":"STARLINK-5970","OBJECT_ID":"2023-064C","EPOCH":"2026-03-11T11:36:24.274656","MEAN_MOTION":14.98327049,"ECCENTRICITY":0.0002867,"INCLINATION":70.0002,"RA_OF_ASC_NODE":139.9833,"ARG_OF_PERICENTER":263.6121,"MEAN_ANOMALY":96.4712,"EPHEMERIS_TYPE":0,"CLASSIFICATION_TYPE":"U","NORAD_CAT_ID":56450,"ELEMENT_SET_NO":999,"REV_AT_EPOCH":15551,"BSTAR":7.7804e-5,"MEAN_MOTION_DOT":8.35e-6,"MEAN_MOTION_DDOT":0},{"OBJECT_NAME":"STARLINK-5985","OBJECT_ID":"2023-064D","EPOCH":"2026-03-11T12:06:13.461408","MEAN_MOTION":14.9831268,"ECCENTRICITY":0.00028,"INCLINATION":70.0022,"RA_OF_ASC_NODE":140.0575,"ARG_OF_PERICENTER":234.5965,"MEAN_ANOMALY":125.4933,"EPHEMERIS_TYPE":0,"CLASSIFICATION_TYPE":"U","NORAD_CAT_ID":56451,"ELEMENT_SET_NO":999,"REV_AT_EPOCH":15551,"BSTAR":0.0003218,"MEAN_MOTION_DOT":3.747e-5,"MEAN_MOTION_DDOT":0},{"OBJECT_NAME":"STARLINK-5986","OBJECT_ID":"2023-064E","EPOCH":"2026-03-11T12:00:12.576384","MEAN_MOTION":14.98329644,"ECCENTRICITY":0.0003077,"INCLINATION":70,"RA_OF_ASC_NODE":140.0402,"ARG_OF_PERICENTER":268.7328,"MEAN_ANOMALY":91.3478,"EPHEMERIS_TYPE":0,"CLASSIFICATION_TYPE":"U","NORAD_CAT_ID":56452,"ELEMENT_SET_NO":999,"REV_AT_EPOCH":15551,"BSTAR":3.388e-6,"MEAN_MOTION_DOT":-5.3e-7,"MEAN_MOTION_DDOT":0}]
